ONEWEB-0156             
1 48052U 21025L   26136.96151852  .00000131  00000+0  32425-3 0  9997
2 48052  87.8949 326.4379 0001757  94.4121 265.7209 13.13471908249475
ONEWEB-0161             
1 48053U 21025M   26137.08847112 -.00000534  00000+0 -14970-2 0  9996
2 48053  87.8942 326.4158 0001692  95.2535 264.8788 13.13469608249421
ONEWEB-0158             
1 48054U 21025N   26136.97166758  .00000282  00000+0  73724-3 0  9995
2 48054  87.8948 326.4351 0001921  80.6677 279.4669 13.13471428249538
ONEWEB-0157             
1 48055U 21025P   26136.99706029  .00000001  00000+0 -30969-4 0  9994
2 48055  87.8956 326.4352 0001449  98.9387 261.1906 13.13468092249472
ONEWEB-0162             
1 48056U 21025Q   26136.97322274  .00000300  00000+0  78777-3 0  9998
2 48056  87.8948 326.4422 0001844  94.3533 265.7806 13.13471722249444
ONEWEB-0155             
1 48057U 21025R   26136.98013197  .00000284  00000+0  74187-3 0  9993
2 48057  87.8945 326.4369 0001603  89.6430 270.4883 13.13470989249585
ONEWEB-0149             
1 48058U 21025S   26136.92596984 -.00000180  00000+0 -52659-3 0  9995
2 48058  87.8954 326.4498 0001895  95.8183 264.3162 13.13470433249380
ONEWEB-0148             
1 48059U 21025T   26136.81254066  .00000245  00000+0  63555-3 0  9993
2 48059  87.8941 326.4816 0002026 106.4847 253.6505 13.13472033249496
ONEWEB-0160             
1 48060U 21025U   26136.82948735  .00000268  00000+0  69984-3 0  9996
2 48060  87.8946 326.4745 0002362  77.4230 282.7163 13.13470723249442
ONEWEB-0163             
1 48061U 21025V   26136.96659479  .00000224  00000+0  57949-3 0  9996
2 48061  87.8940 326.4400 0001551  95.6129 264.5177 13.13469076249580
ONEWEB-0159             
1 48062U 21025W   26136.95812830  .00000070  00000+0  15598-3 0  9991
2 48062  87.8951 326.4340 0001554  93.2154 266.9153 13.13469423249509
ONEWEB-0164             
1 48063U 21025X   26136.93950316 -.00000288  00000+0 -82225-3 0  9996
2 48063  87.8951 326.4441 0001827  87.2476 272.8862 13.13471622249489
ONEWEB-0167             
1 48064U 21025Y   26136.96745319  .00000221  00000+0  56895-3 0  9994
2 48064  87.8941 326.4513 0001187  78.9724 281.1539 13.13470800249471
ONEWEB-0166             
1 48065U 21025Z   26136.91412139  .00000145  00000+0  36301-3 0  9996
2 48065  87.8957 326.4304 0001778  96.5623 263.5709 13.13469207249547
ONEWEB-0151             
1 48066U 21025AA  26136.99197840  .00000093  00000+0  22104-3 0  9992
2 48066  87.8944 326.4349 0001657  86.8566 273.2752 13.13471068249495
ONEWEB-0170             
1 48067U 21025AB  26136.77191341 -.00000107  00000+0 -32833-3 0  9997
2 48067  87.8945 326.4805 0001825  74.8684 285.2647 13.13471070249421
ONEWEB-0168             
1 48068U 21025AC  26136.98520973  .00000273  00000+0  71234-3 0  9998
2 48068  87.8954 326.4351 0001627  95.0094 265.1221 13.13471323249468
ONEWEB-0173             
1 48069U 21025AD  26136.97675069  .00000328  00000+0  86342-3 0  9992
2 48069  87.8943 326.4403 0001419  93.6158 266.5134 13.13471306249705
ONEWEB-0171             
1 48070U 21025AE  26137.09015948 -.00000283  00000+0 -80880-3 0  9995
2 48070  87.8943 326.4264 0001745  87.4842 272.6487 13.13468528249537
ONEWEB-0172             
1 48071U 21025AF  26136.76514517  .00000056  00000+0  11931-3 0  9992
2 48071  87.8953 326.4795 0001594  88.2989 271.8323 13.13468333250380
ONEWEB-0174             
1 48072U 21025AG  26136.97506222  .00000330  00000+0  86861-3 0  9999
2 48072  87.8941 326.4377 0001801  95.7257 264.4078 13.13468728249736
ONEWEB-0175             
1 48073U 21025AH  26137.08170083 -.00000337  00000+0 -95696-3 0  9990
2 48073  87.8954 326.3986 0001633  80.2163 279.9150 13.13468845249400
ONEWEB-0177             
1 48074U 21025AJ  26136.48413024 -.00000253  00000+0 -72694-3 0  9999
2 48074  87.8946 326.5376 0001689  96.0420 264.0902 13.13469287249512
ONEWEB-0178             
1 48075U 21025AK  26136.95997119  .00000071  00000+0  16085-3 0  9992
2 48075  87.8933 326.4597 0001517  85.4495 274.6808 13.13470923249620
ONEWEB-0108             
1 48076U 21025AL  26136.91919428 -.00000015  00000+0 -76393-4 0  9995
2 48076  87.8956 326.4410 0001970  91.6623 268.4732 13.13470933249544
ONEWEB-0169             
1 48077U 21025AM  26136.95135830 -.00000153  00000+0 -45335-3 0  9991
2 48077  87.8941 326.4451 0001805  94.3756 265.7579 13.13472294248201
ONEWEB-0176             
1 48210U 21031A   26137.19904510  .00000229  00000+0  58362-3 0  9999
2 48210  87.8930 295.8808 0001705  95.0028 265.1297 13.14501027244241
ONEWEB-0184             
1 48211U 21031B   26137.17208145 -.00000137  00000+0 -40460-3 0  9999
2 48211  87.8943 295.8844 0001207  72.2864 287.8397 13.14504284244215
ONEWEB-0179             
1 48212U 21031C   26137.16668980 -.00020838  00000+0 -68601-2 0  9992
2 48212  87.8960 294.4449 0220702 359.1765 140.0205 14.25509999  5305
ONEWEB-0180             
1 48213U 21031D   26136.71855438 -.00000017  00000+0 -80181-4 0  9995
2 48213  87.8935 295.9724 0001414 106.5914 253.5372 13.14504617244081
ONEWEB-0218             
1 48214U 21031E   26137.19745233  .00000227  00000+0  57795-3 0  9995
2 48214  87.8939 295.8757 0000948  81.2530 278.8707 13.14504062244306
ONEWEB-0209             
1 48215U 21031F   26137.18637477  .00000102  00000+0  24075-3 0  9992
2 48215  87.8922 295.8979 0001650 103.5655 256.5659 13.14503734244306
ONEWEB-0198             
1 48216U 21031G   26137.17063728 -.00000121  00000+0 -36220-3 0  9992
2 48216  87.8925 295.9016 0001389 101.6180 258.5106 13.14503183244413
ONEWEB-0189             
1 48217U 21031H   26137.18319140  .00000011  00000+0 -35010-5 0  9991
2 48217  87.8927 295.8817 0001436 100.3940 259.7352 13.14503669244153
ONEWEB-0196             
1 48218U 21031J   26137.16097528 -.00000204  00000+0 -58498-3 0  9991
2 48218  87.8935 295.8959 0001650  99.3031 260.8285 13.14500922244153
ONEWEB-0183             
1 48219U 21031K   26137.13561100  .00000099  00000+0  23266-3 0  9996
2 48219  87.8935 295.8997 0001957 100.7666 259.3684 13.14501315244240
ONEWEB-0185             
1 48220U 21031L   26136.70506618 -.00000200  00000+0 -57433-3 0  9992
2 48220  87.8943 295.9766 0001878 109.7412 250.3921 13.14504616244114
ONEWEB-0187             
1 48221U 21031M   26137.14182008 -.00000016  00000+0 -78200-4 0  9996
2 48221  87.8924 295.9097 0001663 104.1574 255.9740 13.14503923244188
ONEWEB-0192             
1 48222U 21031N   26137.18795625  .00000163  00000+0  40440-3 0  9991
2 48222  87.8925 295.8897 0001689  95.4876 264.6446 13.14503606244102
ONEWEB-0219             
1 48223U 21031P   26137.16733094 -.00000220  00000+0 -62867-3 0  9995
2 48223  87.8929 295.8850 0001718 105.2992 254.8327 13.14502572244300
ONEWEB-0202             
1 48224U 21031Q   26137.14829144 -.00000096  00000+0 -29368-3 0  9996
2 48224  87.8938 295.9000 0001116  88.0155 272.1102 13.14501146244287
ONEWEB-0204             
1 48225U 21031R   26137.18238355 -.00000095  00000+0 -28967-3 0  9992
2 48225  87.8932 295.8877 0002038 103.1524 256.9834 13.14503074244189
ONEWEB-0205             
1 48226U 21031S   26136.70109761 -.00000265  00000+0 -74931-3 0  9999
2 48226  87.8934 295.9742 0001766 103.3670 256.7657 13.14500852244132
ONEWEB-0206             
1 48227U 21031T   26137.13086193  .00000164  00000+0  40859-3 0  9999
2 48227  87.8941 295.8923 0001931  92.7080 267.4271 13.14501780244144
ONEWEB-0182             
1 48228U 21031U   26136.66938633  .00000172  00000+0  43055-3 0  9992
2 48228  87.8936 295.9932 0001985 100.7384 259.3969 13.14504119244295
ONEWEB-0186             
1 48229U 21031V   26137.13718946  .00000007  00000+0 -15485-4 0  9994
2 48229  87.8943 295.8885 0001724  99.6486 260.4838 13.14504310244303
ONEWEB-0181             
1 48230U 21031W   26137.19112528  .00000224  00000+0  56920-3 0  9994
2 48230  87.8923 295.9118 0001587  99.7188 260.4121 13.14504465244160
ONEWEB-0188             
1 48231U 21031X   26137.15307231 -.00000189  00000+0 -54331-3 0  9994
2 48231  87.8929 295.9182 0001785  97.7765 262.3567 13.14503374244069
ONEWEB-0220             
1 48232U 21031Y   26137.19269705  .00000244  00000+0  62304-3 0  9991
2 48232  87.8947 295.8786 0001740 104.0233 256.1090 13.14501674244335
ONEWEB-0165             
1 48233U 21031Z   26137.14512012  .00000001  00000+0 -31888-4 0  9995
2 48233  87.8938 295.9030 0001445  97.2008 262.9286 13.14501387244281
ONEWEB-0199             
1 48234U 21031AA  26137.12926763  .00000229  00000+0  58447-3 0  9996
2 48234  87.8943 295.8902 0001950  93.5375 266.5977 13.14501205244187
ONEWEB-0203             
1 48235U 21031AB  26137.19586345  .00000175  00000+0  43748-3 0  9990
2 48235  87.8944 295.8800 0001736  92.0102 268.1226 13.14504314244202
ONEWEB-0197             
1 48236U 21031AC  26137.17037051 -.00000110  00000+0 -33252-3 0  9994
2 48236  87.8932 295.8747 0001962 103.9269 256.2079 13.14502264244113
ONEWEB-0194             
1 48237U 21031AD  26137.14987771 -.00000159  00000+0 -46366-3 0  9998
2 48237  87.8939 295.8993 0001869  89.6906 270.4438 13.14503903244284
ONEWEB-0193             
1 48238U 21031AE  26137.16573856 -.00000224  00000+0 -63945-3 0  9991
2 48238  87.8933 295.8868 0001998  84.2905 275.8452 13.14504140244237
ONEWEB-0191             
1 48239U 21031AF  26137.17683370 -.00000028  00000+0 -11093-3 0  9995
2 48239  87.8935 295.8817 0001945  99.8870 260.2479 13.14505165244098
ONEWEB-0195             
1 48240U 21031AG  26137.15385191 -.00000149  00000+0 -43601-3 0  9999
2 48240  87.8948 295.8865 0001378  99.9857 260.1428 13.14504117244070
ONEWEB-0201             
1 48241U 21031AH  26137.14212541 -.00003052  00000+0 -82738-2 0  9996
2 48241  87.8929 295.9079 0001773 107.6891 252.4432 13.14474131244309
ONEWEB-0207             
1 48242U 21031AJ  26137.19824558  .00000298  00000+0  76828-3 0  9990
2 48242  87.8944 295.8791 0001900 104.9553 255.1787 13.14504278244224
